LANDSAT 9               
1 49260U 21088A   24020.15851473  .00000789  00000+0  18500-3 0  9992
2 49260  98.2065  92.1804 0001058  91.3338 268.7982 14.57121970122990
